GLOBALSTAR M069         
1 31573U 07020C   26198.35828527 -.00000100  00000+0 -73018-4 0  9999
2 31573  52.0008 166.7293 0001590 215.0313 299.4180 12.23472271882495
GLOBALSTAR M072         
1 31574U 07020D   26198.48858687 -.00000079  00000+0  68194-4 0  9997
2 31574  51.9950  19.5748 0001649  39.9688 335.3044 11.91658841878591
GLOBALSTAR M066         
1 32265U 07048C   26198.61031273 -.00000042  00000+0  44418-3 0  9996
2 32265  51.9609 330.5775 0005571 106.6434 266.9058 12.30389736863973
GLOBALSTAR M079         
1 37188U 10054A   26198.45380434 -.00000107  00000+0 -18357-4 0  9991
2 37188  52.0056  16.5339 0001128  81.5515 294.3469 12.62266433726378
GLOBALSTAR M074         
1 37189U 10054B   26198.48059228 -.00000107  00000+0 -20538-4 0  9993
2 37189  52.0034  15.7132 0000866  96.0712 281.5562 12.62262048726982
GLOBALSTAR M076         
1 37190U 10054C   26198.51057352 -.00000090  00000+0  77597-4 0  9992
2 37190  52.0049  15.8277 0001098  96.1275 297.7140 12.62262513726702
GLOBALSTAR M077         
1 37191U 10054D   26198.19777797 -.00000103  00000+0 -46617-3 0  9993
2 37191  51.9959 103.1240 0002226 228.9838 299.4155 11.67547328724646
GLOBALSTAR M075         
1 37192U 10054E   26198.60119255 -.00000093  00000+0  59579-4 0  9998
2 37192  51.9955  57.5888 0000775  68.0712 318.3249 12.62267880725783
GLOBALSTAR M073         
1 37193U 10054F   26198.36393814 -.00000098  00000+0  32339-4 0  9997
2 37193  52.0081 332.4355 0001035  99.3184 286.7457 12.62266920727741
GLOBALSTAR M083         
1 37739U 11033A   26198.64507471 -.00000076  00000+0  15773-3 0  9996
2 37739  51.9862 279.7682 0000728 108.5996  56.8778 12.62264285696794
GLOBALSTAR M088         
1 37740U 11033B   26198.46140712 -.00000116  00000+0 -68147-4 0  9999
2 37740  52.0189 186.8263 0000081  56.3556 112.8314 12.62269499692312
GLOBALSTAR M091         
1 37741U 11033C   26198.63355103 -.00000107  00000+0 -20603-4 0  9996
2 37741  51.9983 149.2226 0000485  28.4884 143.8975 12.62264233693125
GLOBALSTAR M085         
1 37742U 11033D   26198.66334867 -.00000082  00000+0  12005-3 0  9991
2 37742  52.0126 100.4510 0000829  44.9845 322.8805 12.62264389693644
GLOBALSTAR M081         
1 37743U 11033E   26198.25162919 -.00000092  00000+0  63087-4 0  9992
2 37743  51.9956 104.1057 0000713  57.4683 118.4316 12.62265286693735
GLOBALSTAR M089         
1 37744U 11033F   26198.57361696 -.00000094  00000+0  53482-4 0  9991
2 37744  51.9938  57.2784 0000706  90.8844 290.0126 12.62267596694624
GLOBALSTAR M084         
1 38040U 11080A   26198.26926888 -.00000080  00000+0  13373-3 0  9998
2 38040  52.0018 285.7040 0000773 133.3605 243.6392 12.62263578672564
GLOBALSTAR M080         
1 38041U 11080B   26198.66537091 -.00000076  00000+0  15246-3 0  9993
2 38041  52.0067 286.2274 0000291  76.8437  70.7321 12.62257571672739
GLOBALSTAR M082         
1 38042U 11080C   26198.52240174 -.00000089  00000+0  80848-4 0  9997
2 38042  52.0060 242.1663 0000194  76.2364  71.3480 12.62264325673426
GLOBALSTAR M092         
1 38043U 11080D   26198.62490196 -.00000087  00000+0  91347-4 0  9994
2 38043  52.0105 332.2514 0000756 107.2756 265.7007 12.62267839671893
GLOBALSTAR M090         
1 38044U 11080E   26198.12809628 -.00000079  00000+0  13632-3 0  9995
2 38044  52.0103 237.3317 0000413  89.1139 304.6303 12.62269629673490
GLOBALSTAR M086         
1 38045U 11080F   26198.38213594 -.00000097  00000+0  37973-4 0  9990
2 38045  51.9874 236.4377 0001477 115.0182 257.5463 12.62287861673477
GLOBALSTAR M097         
1 39072U 13005A   26198.56955890 -.00000118  00000+0 -76836-4 0  9998
2 39072  52.0028 150.8481 0000495  42.4807 317.6098 12.62271307620744
GLOBALSTAR M093         
1 39073U 13005B   26198.54280278 -.00000104  00000+0  11947-6 0  9996
2 39073  52.0094 144.2883 0000713  48.0633 312.0294 12.62266345620690
GLOBALSTAR M094         
1 39074U 13005C   26198.62184441 -.00000092  00000+0  67827-4 0  9993
2 39074  51.9969  58.1349 0001018  66.2767 293.8207 12.62264193622319
GLOBALSTAR M096         
1 39075U 13005D   26198.16026490 -.00000087  00000+0  91513-4 0  9995
2 39075  52.0072 108.3649 0000785  46.0016 314.0916 12.62265725621179
GLOBALSTAR M078         
1 39076U 13005E   26198.37095157 -.00000122  00000+0 -10031-3 0  9991
2 39076  51.9845 191.6924 0000892 344.7937  15.2903 12.62260137619823
GLOBALSTAR M095         
1 39077U 13005F   26198.00170557 -.00000124  00000+0 -11568-3 0  9998
2 39077  52.0053 190.4627 0000502  15.9814 344.1068 12.62264118619631
GLOBALSTAR M087         
1 52888U 22064A   26198.41072934 -.00000088  00000+0  88417-4 0  9999
2 52888  52.0016 330.4391 0000905  87.9852 272.1119 12.62269420194958
